STARLINK-30611          
1 58108U 23161M   26068.46128898 -.00000871  00000+0 -17308-4 0  9993
2 58108  53.1599 153.8170 0000996 118.8201 241.2900 15.30187351134567
TEVEL2-4                
1 63213U 25052D   26068.69417973  .00020990  00000+0  70363-3 0  9998
2 63213  97.4009 325.1237 0004733  95.3468 264.8313 15.30925813 54879
